[{"OBJECT_NAME":"STARLINK-36296","OBJECT_ID":"2026-063A","EPOCH":"2026-04-07T06:00:02.999808","MEAN_MOTION":15.9992476,"ECCENTRICITY":0.00022258,"INCLINATION":97.2834,"RA_OF_ASC_NODE":238.4198,"ARG_OF_PERICENTER":348.1806,"MEAN_ANOMALY":100.2997,"EPHEMERIS_TYPE":0,"CLASSIFICATION_TYPE":"U","NORAD_CAT_ID":68380,"ELEMENT_SET_NO":999,"REV_AT_EPOCH":305,"BSTAR":0.0013050258,"MEAN_MOTION_DOT":0.00656289,"MEAN_MOTION_DDOT":0.00019601138},{"OBJECT_NAME":"STARLINK-37111","OBJECT_ID":"2026-063B","EPOCH":"2026-04-07T06:00:02.999808","MEAN_MOTION":15.80780866,"ECCENTRICITY":0.00011233,"INCLINATION":97.2846,"RA_OF_ASC_NODE":238.3625,"ARG_OF_PERICENTER":63.1961,"MEAN_ANOMALY":255.176,"EPHEMERIS_TYPE":0,"CLASSIFICATION_TYPE":"U","NORAD_CAT_ID":68381,"ELEMENT_SET_NO":999,"REV_AT_EPOCH":305,"BSTAR":0.00031465608,"MEAN_MOTION_DOT":0.0006045,"MEAN_MOTION_DDOT":0},{"OBJECT_NAME":"STARLINK-36946","OBJECT_ID":"2026-063C","EPOCH":"2026-04-07T06:00:02.999808","MEAN_MOTION":15.8077151,"ECCENTRICITY":0.00014655,"INCLINATION":97.2844,"RA_OF_ASC_NODE":238.3637,"ARG_OF_PERICENTER":83.6954,"MEAN_ANOMALY":238.9403,"EPHEMERIS_TYPE":0,"CLASSIFICATION_TYPE":"U","NORAD_CAT_ID":68382,"ELEMENT_SET_NO":999,"REV_AT_EPOCH":305,"BSTAR":0.00065085523,"MEAN_MOTION_DOT":0.00126089,"MEAN_MOTION_DDOT":0},{"OBJECT_NAME":"STARLINK-37121","OBJECT_ID":"2026-063D","EPOCH":"2026-04-07T06:00:02.999808","MEAN_MOTION":15.80678265,"ECCENTRICITY":0.00018949,"INCLINATION":97.2843,"RA_OF_ASC_NODE":238.3678,"ARG_OF_PERICENTER":52.2603,"MEAN_ANOMALY":278.9437,"EPHEMERIS_TYPE":0,"CLASSIFICATION_TYPE":"U","NORAD_CAT_ID":68383,"ELEMENT_SET_NO":999,"REV_AT_EPOCH":305,"BSTAR":0.0012046202,"MEAN_MOTION_DOT":0.00235458,"MEAN_MOTION_DDOT":0},{"OBJECT_NAME":"STARLINK-37137","OBJECT_ID":"2026-063E","EPOCH":"2026-04-07T06:00:02.999808","MEAN_MOTION":15.80762818,"ECCENTRICITY":0.00016241,"INCLINATION":97.2844,"RA_OF_ASC_NODE":238.3661,"ARG_OF_PERICENTER":56.924,"MEAN_ANOMALY":269.9978,"EPHEMERIS_TYPE":0,"CLASSIFICATION_TYPE":"U","NORAD_CAT_ID":68384,"ELEMENT_SET_NO":999,"REV_AT_EPOCH":305,"BSTAR":0.00053609507,"MEAN_MOTION_DOT":0.00103522,"MEAN_MOTION_DDOT":0},{"OBJECT_NAME":"STARLINK-37128","OBJECT_ID":"2026-063F","EPOCH":"2026-04-07T06:00:02.999808","MEAN_MOTION":15.80766441,"ECCENTRICITY":0.00010456,"INCLINATION":97.2841,"RA_OF_ASC_NODE":238.3701,"ARG_OF_PERICENTER":75.8136,"MEAN_ANOMALY":259.6595,"EPHEMERIS_TYPE":0,"CLASSIFICATION_TYPE":"U","NORAD_CAT_ID":68385,"ELEMENT_SET_NO":999,"REV_AT_EPOCH":300,"BSTAR":0.00057605513,"MEAN_MOTION_DOT":0.00111365,"MEAN_MOTION_DDOT":0},{"OBJECT_NAME":"STARLINK-37198","OBJECT_ID":"2026-063G","EPOCH":"2026-04-07T06:00:02.999808","MEAN_MOTION":15.80809907,"ECCENTRICITY":0.00014154,"INCLINATION":97.2839,"RA_OF_ASC_NODE":238.3712,"ARG_OF_PERICENTER":63.7808,"MEAN_ANOMALY":275.9537,"EPHEMERIS_TYPE":0,"CLASSIFICATION_TYPE":"U","NORAD_CAT_ID":68386,"ELEMENT_SET_NO":999,"REV_AT_EPOCH":305,"BSTAR":0.00014150197,"MEAN_MOTION_DOT":0.00027039,"MEAN_MOTION_DDOT":0},{"OBJECT_NAME":"STARLINK-37223","OBJECT_ID":"2026-063H","EPOCH":"2026-04-07T06:00:02.999808","MEAN_MOTION":15.80785719,"ECCENTRICITY":0.00017522,"INCLINATION":97.2841,"RA_OF_ASC_NODE":238.3734,"ARG_OF_PERICENTER":71.6621,"MEAN_ANOMALY":272.3481,"EPHEMERIS_TYPE":0,"CLASSIFICATION_TYPE":"U","NORAD_CAT_ID":68387,"ELEMENT_SET_NO":999,"REV_AT_EPOCH":305,"BSTAR":0.00040196315,"MEAN_MOTION_DOT":0.00077435,"MEAN_MOTION_DDOT":0},{"OBJECT_NAME":"STARLINK-37203","OBJECT_ID":"2026-063J","EPOCH":"2026-04-07T06:00:02.999808","MEAN_MOTION":15.80724454,"ECCENTRICITY":0.00018342,"INCLINATION":97.2838,"RA_OF_ASC_NODE":238.3761,"ARG_OF_PERICENTER":81.3282,"MEAN_ANOMALY":266.9522,"EPHEMERIS_TYPE":0,"CLASSIFICATION_TYPE":"U","NORAD_CAT_ID":68388,"ELEMENT_SET_NO":999,"REV_AT_EPOCH":305,"BSTAR":0.0012914418,"MEAN_MOTION_DOT":0.00253497,"MEAN_MOTION_DDOT":0},{"OBJECT_NAME":"STARLINK-37197","OBJECT_ID":"2026-063K","EPOCH":"2026-04-07T06:00:02.999808","MEAN_MOTION":15.80940638,"ECCENTRICITY":0.00016514,"INCLINATION":97.2839,"RA_OF_ASC_NODE":238.3794,"ARG_OF_PERICENTER":75.8667,"MEAN_ANOMALY":280.8908,"EPHEMERIS_TYPE":0,"CLASSIFICATION_TYPE":"U","NORAD_CAT_ID":68389,"ELEMENT_SET_NO":999,"REV_AT_EPOCH":305,"BSTAR":-0.00092775847,"MEAN_MOTION_DOT":-0.00175341,"MEAN_MOTION_DDOT":0},{"OBJECT_NAME":"STARLINK-37193","OBJECT_ID":"2026-063L","EPOCH":"2026-04-07T08:00:06.545376","MEAN_MOTION":16.04778363,"ECCENTRICITY":0.0001742,"INCLINATION":97.2793,"RA_OF_ASC_NODE":238.5786,"ARG_OF_PERICENTER":126.2131,"MEAN_ANOMALY":233.9311,"EPHEMERIS_TYPE":0,"CLASSIFICATION_TYPE":"U","NORAD_CAT_ID":68390,"ELEMENT_SET_NO":999,"REV_AT_EPOCH":215,"BSTAR":9.12e-6,"MEAN_MOTION_DOT":5.394e-5,"MEAN_MOTION_DDOT":2.2898e-6},{"OBJECT_NAME":"STARLINK-37216","OBJECT_ID":"2026-063M","EPOCH":"2026-04-07T06:00:02.999808","MEAN_MOTION":15.81117489,"ECCENTRICITY":0.00013907,"INCLINATION":97.2835,"RA_OF_ASC_NODE":238.3803,"ARG_OF_PERICENTER":73.3732,"MEAN_ANOMALY":287.5765,"EPHEMERIS_TYPE":0,"CLASSIFICATION_TYPE":"U","NORAD_CAT_ID":68391,"ELEMENT_SET_NO":999,"REV_AT_EPOCH":305,"BSTAR":-0.002499671,"MEAN_MOTION_DOT":-0.00460899,"MEAN_MOTION_DDOT":0},{"OBJECT_NAME":"STARLINK-37215","OBJECT_ID":"2026-063N","EPOCH":"2026-04-07T06:00:02.999808","MEAN_MOTION":15.81166414,"ECCENTRICITY":0.00014739,"INCLINATION":97.2833,"RA_OF_ASC_NODE":238.3818,"ARG_OF_PERICENTER":67.0174,"MEAN_ANOMALY":298.1778,"EPHEMERIS_TYPE":0,"CLASSIFICATION_TYPE":"U","NORAD_CAT_ID":68392,"ELEMENT_SET_NO":999,"REV_AT_EPOCH":305,"BSTAR":-0.0028650593,"MEAN_MOTION_DOT":-0.00525606,"MEAN_MOTION_DDOT":0},{"OBJECT_NAME":"STARLINK-37184","OBJECT_ID":"2026-063P","EPOCH":"2026-04-07T06:00:02.999808","MEAN_MOTION":15.81229788,"ECCENTRICITY":0.00016065,"INCLINATION":97.2832,"RA_OF_ASC_NODE":238.3836,"ARG_OF_PERICENTER":66.8147,"MEAN_ANOMALY":302.618,"EPHEMERIS_TYPE":0,"CLASSIFICATION_TYPE":"U","NORAD_CAT_ID":68393,"ELEMENT_SET_NO":999,"REV_AT_EPOCH":305,"BSTAR":-0.0033751447,"MEAN_MOTION_DOT":-0.00614778,"MEAN_MOTION_DDOT":0},{"OBJECT_NAME":"STARLINK-37157","OBJECT_ID":"2026-063Q","EPOCH":"2026-04-07T06:00:02.999808","MEAN_MOTION":15.81388263,"ECCENTRICITY":0.00014811,"INCLINATION":97.2827,"RA_OF_ASC_NODE":238.3849,"ARG_OF_PERICENTER":76.6658,"MEAN_ANOMALY":296.9522,"EPHEMERIS_TYPE":0,"CLASSIFICATION_TYPE":"U","NORAD_CAT_ID":68394,"ELEMENT_SET_NO":999,"REV_AT_EPOCH":305,"BSTAR":-0.0045560207,"MEAN_MOTION_DOT":-0.00816866,"MEAN_MOTION_DDOT":0},{"OBJECT_NAME":"STARLINK-37172","OBJECT_ID":"2026-063R","EPOCH":"2026-04-07T06:00:02.999808","MEAN_MOTION":15.81686055,"ECCENTRICITY":0.00016905,"INCLINATION":97.2823,"RA_OF_ASC_NODE":238.3892,"ARG_OF_PERICENTER":69.6166,"MEAN_ANOMALY":312.3757,"EPHEMERIS_TYPE":0,"CLASSIFICATION_TYPE":"U","NORAD_CAT_ID":68395,"ELEMENT_SET_NO":999,"REV_AT_EPOCH":305,"BSTAR":-0.0068224311,"MEAN_MOTION_DOT":-0.01209952,"MEAN_MOTION_DDOT":0},{"OBJECT_NAME":"STARLINK-37190","OBJECT_ID":"2026-063S","EPOCH":"2026-04-07T06:00:02.999808","MEAN_MOTION":15.81626561,"ECCENTRICITY":0.00016649,"INCLINATION":97.2823,"RA_OF_ASC_NODE":238.3879,"ARG_OF_PERICENTER":63.1284,"MEAN_ANOMALY":314.6376,"EPHEMERIS_TYPE":0,"CLASSIFICATION_TYPE":"U","NORAD_CAT_ID":68396,"ELEMENT_SET_NO":999,"REV_AT_EPOCH":305,"BSTAR":-0.0065772597,"MEAN_MOTION_DOT":-0.01168175,"MEAN_MOTION_DDOT":0},{"OBJECT_NAME":"STARLINK-37194","OBJECT_ID":"2026-063T","EPOCH":"2026-04-07T06:00:02.999808","MEAN_MOTION":15.81766952,"ECCENTRICITY":0.00012381,"INCLINATION":97.2821,"RA_OF_ASC_NODE":238.3901,"ARG_OF_PERICENTER":71.4708,"MEAN_ANOMALY":314.7163,"EPHEMERIS_TYPE":0,"CLASSIFICATION_TYPE":"U","NORAD_CAT_ID":68397,"ELEMENT_SET_NO":999,"REV_AT_EPOCH":305,"BSTAR":-0.0069436314,"MEAN_MOTION_DOT":-0.01232905,"MEAN_MOTION_DDOT":0},{"OBJECT_NAME":"STARLINK-37220","OBJECT_ID":"2026-063U","EPOCH":"2026-04-07T06:00:02.999808","MEAN_MOTION":15.82008228,"ECCENTRICITY":0.00013474,"INCLINATION":97.282,"RA_OF_ASC_NODE":238.3943,"ARG_OF_PERICENTER":68.0691,"MEAN_ANOMALY":326.4665,"EPHEMERIS_TYPE":0,"CLASSIFICATION_TYPE":"U","NORAD_CAT_ID":68398,"ELEMENT_SET_NO":999,"REV_AT_EPOCH":305,"BSTAR":-0.0080537338,"MEAN_MOTION_DOT":-0.01446768,"MEAN_MOTION_DDOT":0},{"OBJECT_NAME":"STARLINK-37187","OBJECT_ID":"2026-063V","EPOCH":"2026-04-07T06:00:02.999808","MEAN_MOTION":15.81957919,"ECCENTRICITY":0.00013522,"INCLINATION":97.2817,"RA_OF_ASC_NODE":238.3931,"ARG_OF_PERICENTER":45.4193,"MEAN_ANOMALY":344.9202,"EPHEMERIS_TYPE":0,"CLASSIFICATION_TYPE":"U","NORAD_CAT_ID":68399,"ELEMENT_SET_NO":999,"REV_AT_EPOCH":305,"BSTAR":-0.0083828164,"MEAN_MOTION_DOT":-0.01495897,"MEAN_MOTION_DDOT":0},{"OBJECT_NAME":"STARLINK-36235","OBJECT_ID":"2026-063W","EPOCH":"2026-04-07T06:00:02.999808","MEAN_MOTION":15.82079227,"ECCENTRICITY":0.00013827,"INCLINATION":97.2812,"RA_OF_ASC_NODE":238.3956,"ARG_OF_PERICENTER":78.9787,"MEAN_ANOMALY":319.78,"EPHEMERIS_TYPE":0,"CLASSIFICATION_TYPE":"U","NORAD_CAT_ID":68400,"ELEMENT_SET_NO":999,"REV_AT_EPOCH":305,"BSTAR":-0.0085517581,"MEAN_MOTION_DOT":-0.01530119,"MEAN_MOTION_DDOT":0},{"OBJECT_NAME":"STARLINK-37175","OBJECT_ID":"2026-063X","EPOCH":"2026-04-07T06:00:02.999808","MEAN_MOTION":15.82206632,"ECCENTRICITY":0.0001584,"INCLINATION":97.2814,"RA_OF_ASC_NODE":238.3985,"ARG_OF_PERICENTER":82.386,"MEAN_ANOMALY":320.5675,"EPHEMERIS_TYPE":0,"CLASSIFICATION_TYPE":"U","NORAD_CAT_ID":68401,"ELEMENT_SET_NO":999,"REV_AT_EPOCH":305,"BSTAR":-0.0095463556,"MEAN_MOTION_DOT":-0.01693288,"MEAN_MOTION_DDOT":0},{"OBJECT_NAME":"STARLINK-36360","OBJECT_ID":"2026-063Y","EPOCH":"2026-04-07T06:00:02.999808","MEAN_MOTION":15.82245811,"ECCENTRICITY":0.00015898,"INCLINATION":97.2805,"RA_OF_ASC_NODE":238.3993,"ARG_OF_PERICENTER":61.8426,"MEAN_ANOMALY":345.3149,"EPHEMERIS_TYPE":0,"CLASSIFICATION_TYPE":"U","NORAD_CAT_ID":68402,"ELEMENT_SET_NO":999,"REV_AT_EPOCH":305,"BSTAR":-0.0092794569,"MEAN_MOTION_DOT":-0.01654841,"MEAN_MOTION_DDOT":0}]
